{
  "type": "FeatureCollection",
  "metadata": {
    "provider": "FOSSGIS OpenStreetMap routing service using OSRM",
    "source_url": "https://routing.openstreetmap.de/about.html",
    "route_api_url": "https://routing.openstreetmap.de/routed-foot/route/v1/driving/7.59026,47.54811;7.58779,47.55814?alternatives=true&geometries=geojson&overview=full&steps=true&annotations=true",
    "source_data": "OpenStreetMap pedestrian network",
    "attribution": "© OpenStreetMap contributors · Routing by OSRM (FOSSGIS)",
    "licence": "OpenStreetMap data and derived route geometry: ODbL 1.0",
    "osm_copyright_url": "https://www.openstreetmap.org/copyright",
    "route_engine": "OSRM",
    "route_profile": "foot",
    "retrieved_at": "2026-10-03T12:10:42.051086Z",
    "snapshot_date": "2026-10-03",
    "snapshot_date_basis": "route retrieval date; exact upstream graph build timestamp is not exposed",
    "network_update_note": "FOSSGIS reports routing graphs are updated roughly every two days.",
    "start": {
      "name": "Centralbahnplatz, Basel",
      "coordinates": [
        7.59026,
        47.54811
      ],
      "osm_feature": "way/659612290",
      "snapped_coordinates": [
        7.590209,
        47.548055
      ],
      "snap_distance_m": 7.221058282
    },
    "end": {
      "name": "Marktplatz, Basel",
      "coordinates": [
        7.58779,
        47.55814
      ],
      "osm_feature": "way/193681195",
      "snapped_coordinates": [
        7.587694,
        47.558107
      ],
      "snap_distance_m": 8.10115163
    }
  },
  "features": [
    {
      "type": "Feature",
      "id": "demo-route-a",
      "properties": {
        "route_id": "demo-route-a",
        "label": "Via Barfüsserplatz",
        "alternative_index": 0,
        "distance_m": 1322.7,
        "routing_duration_s": 1058.2,
        "path_names": [
          "Centralbahn-Passage",
          "Steinenvorstadt",
          "Barfüsserplatz",
          "Gerbergasse",
          "Marktplatz"
        ],
        "access_evidence": "FOSSGIS OSRM routed-foot profile",
        "access_note": "The foot profile selected this path from its OSM pedestrian network. The route API does not return a per-segment access-tag audit or temporary closure feed; current local conditions remain unverified.",
        "coverage_note": "Geometry lies in Basel city centre. Shade-calculation support remains a T10 check."
      },
      "geometry": {
        "coordinates": [
          [
            7.590209,
            47.548055
          ],
          [
            7.590132,
            47.548085
          ],
          [
            7.590067,
            47.548112
          ],
          [
            7.590015,
            47.548132
          ],
          [
            7.589997,
            47.548139
          ],
          [
            7.589964,
            47.548152
          ],
          [
            7.589912,
            47.548178
          ],
          [
            7.589871,
            47.548192
          ],
          [
            7.589796,
            47.548293
          ],
          [
            7.589628,
            47.548364
          ],
          [
            7.589496,
            47.548424
          ],
          [
            7.589402,
            47.548442
          ],
          [
            7.589212,
            47.548478
          ],
          [
            7.589156,
            47.548489
          ],
          [
            7.589125,
            47.548519
          ],
          [
            7.589116,
            47.548528
          ],
          [
            7.588963,
            47.548678
          ],
          [
            7.588843,
            47.548796
          ],
          [
            7.588871,
            47.548839
          ],
          [
            7.588916,
            47.548901
          ],
          [
            7.588899,
            47.548935
          ],
          [
            7.588889,
            47.548958
          ],
          [
            7.588813,
            47.549116
          ],
          [
            7.58879,
            47.54917
          ],
          [
            7.588748,
            47.549252
          ],
          [
            7.588679,
            47.549306
          ],
          [
            7.588272,
            47.549465
          ],
          [
            7.588252,
            47.549473
          ],
          [
            7.5882,
            47.549485
          ],
          [
            7.588142,
            47.549498
          ],
          [
            7.587882,
            47.549585
          ],
          [
            7.587753,
            47.549791
          ],
          [
            7.587674,
            47.549767
          ],
          [
            7.587196,
            47.550672
          ],
          [
            7.587176,
            47.550729
          ],
          [
            7.587157,
            47.550785
          ],
          [
            7.58721,
            47.550817
          ],
          [
            7.58724,
            47.550835
          ],
          [
            7.587269,
            47.550853
          ],
          [
            7.587313,
            47.55088
          ],
          [
            7.587477,
            47.550921
          ],
          [
            7.58754,
            47.550957
          ],
          [
            7.587604,
            47.550998
          ],
          [
            7.587554,
            47.55104
          ],
          [
            7.587529,
            47.551061
          ],
          [
            7.587525,
            47.551077
          ],
          [
            7.587523,
            47.551082
          ],
          [
            7.58752,
            47.551096
          ],
          [
            7.587518,
            47.551103
          ],
          [
            7.587516,
            47.55111
          ],
          [
            7.587509,
            47.551132
          ],
          [
            7.587499,
            47.551168
          ],
          [
            7.587493,
            47.551201
          ],
          [
            7.587409,
            47.551194
          ],
          [
            7.587282,
            47.55135
          ],
          [
            7.587437,
            47.551551
          ],
          [
            7.587468,
            47.551589
          ],
          [
            7.587496,
            47.551617
          ],
          [
            7.587518,
            47.551636
          ],
          [
            7.587555,
            47.551678
          ],
          [
            7.587651,
            47.55179
          ],
          [
            7.587778,
            47.551941
          ],
          [
            7.587817,
            47.551982
          ],
          [
            7.588216,
            47.552403
          ],
          [
            7.588252,
            47.55244
          ],
          [
            7.588415,
            47.552599
          ],
          [
            7.588498,
            47.552688
          ],
          [
            7.588662,
            47.552865
          ],
          [
            7.588685,
            47.552893
          ],
          [
            7.588755,
            47.552998
          ],
          [
            7.588919,
            47.553338
          ],
          [
            7.58893,
            47.553478
          ],
          [
            7.588968,
            47.554064
          ],
          [
            7.589007,
            47.554106
          ],
          [
            7.588955,
            47.554126
          ],
          [
            7.58894,
            47.554134
          ],
          [
            7.588926,
            47.554151
          ],
          [
            7.588918,
            47.554161
          ],
          [
            7.588897,
            47.554189
          ],
          [
            7.588868,
            47.554244
          ],
          [
            7.588859,
            47.554883
          ],
          [
            7.588866,
            47.555205
          ],
          [
            7.588639,
            47.555945
          ],
          [
            7.58862,
            47.556044
          ],
          [
            7.588523,
            47.55664
          ],
          [
            7.588531,
            47.556654
          ],
          [
            7.58849,
            47.556681
          ],
          [
            7.588458,
            47.556711
          ],
          [
            7.588405,
            47.556772
          ],
          [
            7.588283,
            47.556942
          ],
          [
            7.588155,
            47.557206
          ],
          [
            7.587947,
            47.557603
          ],
          [
            7.587967,
            47.55761
          ],
          [
            7.588045,
            47.557638
          ],
          [
            7.588001,
            47.5577
          ],
          [
            7.587961,
            47.557757
          ],
          [
            7.587954,
            47.557763
          ],
          [
            7.587694,
            47.558107
          ]
        ],
        "type": "LineString"
      }
    },
    {
      "type": "Feature",
      "id": "demo-route-b",
      "properties": {
        "route_id": "demo-route-b",
        "label": "Via Freie Strasse",
        "alternative_index": 1,
        "distance_m": 1319.1,
        "routing_duration_s": 1055.4,
        "path_names": [
          "Elisabethenstrasse",
          "Henric Petri-Strasse",
          "Freie Strasse",
          "Marktplatz"
        ],
        "access_evidence": "FOSSGIS OSRM routed-foot profile",
        "access_note": "The foot profile selected this path from its OSM pedestrian network. The route API does not return a per-segment access-tag audit or temporary closure feed; current local conditions remain unverified.",
        "coverage_note": "Geometry lies in Basel city centre. Shade-calculation support remains a T10 check."
      },
      "geometry": {
        "coordinates": [
          [
            7.590209,
            47.548055
          ],
          [
            7.590132,
            47.548085
          ],
          [
            7.590067,
            47.548112
          ],
          [
            7.590015,
            47.548132
          ],
          [
            7.589997,
            47.548139
          ],
          [
            7.589964,
            47.548152
          ],
          [
            7.589912,
            47.548178
          ],
          [
            7.589871,
            47.548192
          ],
          [
            7.590263,
            47.54865
          ],
          [
            7.590303,
            47.548698
          ],
          [
            7.590333,
            47.548747
          ],
          [
            7.590346,
            47.548798
          ],
          [
            7.590365,
            47.548851
          ],
          [
            7.590392,
            47.54892
          ],
          [
            7.590414,
            47.548975
          ],
          [
            7.590423,
            47.548999
          ],
          [
            7.590434,
            47.54903
          ],
          [
            7.59045,
            47.549075
          ],
          [
            7.590465,
            47.549116
          ],
          [
            7.590471,
            47.549133
          ],
          [
            7.590483,
            47.549169
          ],
          [
            7.590489,
            47.549188
          ],
          [
            7.590505,
            47.549239
          ],
          [
            7.590471,
            47.549335
          ],
          [
            7.590468,
            47.549399
          ],
          [
            7.590495,
            47.549495
          ],
          [
            7.590417,
            47.549674
          ],
          [
            7.590468,
            47.549802
          ],
          [
            7.590468,
            47.549858
          ],
          [
            7.590459,
            47.549892
          ],
          [
            7.590444,
            47.549937
          ],
          [
            7.590453,
            47.550041
          ],
          [
            7.590465,
            47.550194
          ],
          [
            7.590432,
            47.550221
          ],
          [
            7.590417,
            47.550229
          ],
          [
            7.590475,
            47.55027
          ],
          [
            7.590539,
            47.550315
          ],
          [
            7.590671,
            47.550408
          ],
          [
            7.59076,
            47.55048
          ],
          [
            7.590812,
            47.550534
          ],
          [
            7.590874,
            47.550607
          ],
          [
            7.590909,
            47.550658
          ],
          [
            7.590957,
            47.550732
          ],
          [
            7.591002,
            47.550823
          ],
          [
            7.591019,
            47.550877
          ],
          [
            7.591032,
            47.550928
          ],
          [
            7.591042,
            47.551
          ],
          [
            7.591043,
            47.551076
          ],
          [
            7.591041,
            47.551295
          ],
          [
            7.59104,
            47.551489
          ],
          [
            7.591037,
            47.551618
          ],
          [
            7.591038,
            47.551644
          ],
          [
            7.591064,
            47.551642
          ],
          [
            7.591104,
            47.55164
          ],
          [
            7.591107,
            47.551737
          ],
          [
            7.591127,
            47.551867
          ],
          [
            7.591143,
            47.551945
          ],
          [
            7.591171,
            47.552042
          ],
          [
            7.591214,
            47.552141
          ],
          [
            7.591469,
            47.552585
          ],
          [
            7.591418,
            47.552605
          ],
          [
            7.591395,
            47.552612
          ],
          [
            7.591483,
            47.552778
          ],
          [
            7.5915,
            47.552809
          ],
          [
            7.591556,
            47.552908
          ],
          [
            7.591785,
            47.553303
          ],
          [
            7.591952,
            47.553592
          ],
          [
            7.591902,
            47.553615
          ],
          [
            7.591911,
            47.553639
          ],
          [
            7.591901,
            47.553659
          ],
          [
            7.591892,
            47.553665
          ],
          [
            7.591822,
            47.553676
          ],
          [
            7.59183,
            47.553706
          ],
          [
            7.591837,
            47.553728
          ],
          [
            7.591843,
            47.553751
          ],
          [
            7.591844,
            47.553754
          ],
          [
            7.59185,
            47.553774
          ],
          [
            7.591853,
            47.553785
          ],
          [
            7.591858,
            47.553803
          ],
          [
            7.591869,
            47.553839
          ],
          [
            7.591908,
            47.553845
          ],
          [
            7.59194,
            47.553863
          ],
          [
            7.591951,
            47.55389
          ],
          [
            7.591955,
            47.553922
          ],
          [
            7.591996,
            47.553961
          ],
          [
            7.591939,
            47.554042
          ],
          [
            7.591742,
            47.554322
          ],
          [
            7.591487,
            47.554656
          ],
          [
            7.591454,
            47.554716
          ],
          [
            7.591295,
            47.554862
          ],
          [
            7.591019,
            47.555091
          ],
          [
            7.590854,
            47.555234
          ],
          [
            7.590785,
            47.555293
          ],
          [
            7.590525,
            47.555623
          ],
          [
            7.590383,
            47.555795
          ],
          [
            7.590216,
            47.556013
          ],
          [
            7.59006,
            47.556181
          ],
          [
            7.589831,
            47.556409
          ],
          [
            7.589474,
            47.556778
          ],
          [
            7.589335,
            47.556923
          ],
          [
            7.589213,
            47.557041
          ],
          [
            7.5884,
            47.557696
          ],
          [
            7.588359,
            47.557734
          ],
          [
            7.588351,
            47.557741
          ],
          [
            7.588287,
            47.5578
          ],
          [
            7.588111,
            47.557732
          ],
          [
            7.588075,
            47.557779
          ],
          [
            7.588003,
            47.557754
          ],
          [
            7.587984,
            47.557752
          ],
          [
            7.587972,
            47.557753
          ],
          [
            7.587961,
            47.557757
          ],
          [
            7.587954,
            47.557763
          ],
          [
            7.587694,
            47.558107
          ]
        ],
        "type": "LineString"
      }
    }
  ]
}
